23455,NOAA 14,1994,101.8,-1.0,-,98.46,Inactive,0,LEO,USA,USA,Unknown,Unknown,Unknown,1 23455U 94089A   25172.54567311  .00000035  00000+0  39483-4 0  9996,2 23455  98.4642 154.7473 0010329  45.3553 314.8462 14.14587618572215,14.14587618,0.0010329,LEO
25338,NOAA 15,1998,100.91,2223.0,B,98.53,Active,1,LEO,USA,USA,Government,Earth Observation,Titan,1 25338U 98030A   25172.80161664  .00000192  00000+0  96580-4 0  9993,2 25338  98.5342 197.6382 0009500 329.8455  30.2178 14.26986082410147,14.26986082,0.00095,LEO
28654,NOAA 18,2005,101.87,2223.0,B,98.84,Active,1,LEO,USA,USA,Government,Earth Observation,Delta,1 28654U 05018A   25172.79630483  .00000062  00000+0  55860-4 0  9991,2 28654  98.8424 252.1354 0015379  95.1378 265.1550 14.13613897 35478,14.13613897,0.0015379,LEO
33591,NOAA 19,2009,101.88,1420.0,+,99.0,Active,1,LEO,USA,USA,Government,Earth Observation,Delta,1 33591U 09005A   25172.80473651  .00000145  00000+0  10140-3 0  9994,2 33591  98.9968 237.5777 0013123 333.3602  26.6894 14.13379832843832,14.13379832,0.0013123,LEO
37849,SUOMI NPP,2011,101.44,2128.0,+,98.76,Active,1,LEO,USA,USA,Government,Earth Observation,Delta,1 37849U 11061A   25172.80607577  .00000047  00000+0  43388-4 0  9997,2 37849  98.7581 111.9389 0000391 322.9961  37.1188 14.19541349707304,14.19541349,3.91e-05,LEO
43013,NOAA 20 (JPSS-1),2017,101.44,2294.0,+,98.74,Active,1,LEO,USA,USA,Government,Earth Observation,Delta,1 43013U 17073A   25172.82164425  .00000028  00000+0  34340-4 0  9995,2 43013  98.7419 111.2411 0000380 154.4900 205.6295 14.19511015393345,14.19511015,3.8e-05,LEO
54234,NOAA 21 (JPSS-2),2022,101.44,-1.0,+,98.73,Active,0,LEO,USA,USA,Unknown,Unknown,Unknown,1 54234U 22150A   25172.57603616  .00000031  00000+0  35417-4 0  9996,2 54234  98.7275 111.2760 0002465 117.0307 243.1121 14.19540257135384,14.19540257,0.0002465,LEO
